[{"OBJECT_NAME":"SAUDISAT 1C (SO-50)","OBJECT_ID":"2002-058C","EPOCH":"2026-04-25T19:49:04.603872","MEAN_MOTION":14.82928015,"ECCENTRICITY":0.00755873,"INCLINATION":64.5516,"RA_OF_ASC_NODE":290.9753,"ARG_OF_PERICENTER":271.9918,"MEAN_ANOMALY":87.2533,"EPHEMERIS_TYPE":0,"CLASSIFICATION_TYPE":"U","NORAD_CAT_ID":27607,"ELEMENT_SET_NO":999,"REV_AT_EPOCH":25669,"BSTAR":0.00015231081,"MEAN_MOTION_DOT":1.145e-5,"MEAN_MOTION_DDOT":0},{"OBJECT_NAME":"SAUDISAT 2","OBJECT_ID":"2004-025F","EPOCH":"2026-04-25T23:05:14.296992","MEAN_MOTION":14.5665059,"ECCENTRICITY":0.00259556,"INCLINATION":98.5511,"RA_OF_ASC_NODE":114.5969,"ARG_OF_PERICENTER":96.8893,"MEAN_ANOMALY":263.5258,"EPHEMERIS_TYPE":0,"CLASSIFICATION_TYPE":"U","NORAD_CAT_ID":28371,"ELEMENT_SET_NO":999,"REV_AT_EPOCH":15814,"BSTAR":8.0216422e-5,"MEAN_MOTION_DOT":3.1e-6,"MEAN_MOTION_DDOT":0},{"OBJECT_NAME":"SAUDISAT 3","OBJECT_ID":"2007-012B","EPOCH":"2026-04-25T19:53:02.168448","MEAN_MOTION":14.7139205,"ECCENTRICITY":0.00154849,"INCLINATION":98.1418,"RA_OF_ASC_NODE":66.2086,"ARG_OF_PERICENTER":38.2514,"MEAN_ANOMALY":321.9788,"EPHEMERIS_TYPE":0,"CLASSIFICATION_TYPE":"U","NORAD_CAT_ID":31118,"ELEMENT_SET_NO":999,"REV_AT_EPOCH":2004,"BSTAR":6.1914667e-5,"MEAN_MOTION_DOT":3.33e-6,"MEAN_MOTION_DDOT":0},{"OBJECT_NAME":"PISAT","OBJECT_ID":"2016-059B","EPOCH":"2026-04-25T23:10:54.688800","MEAN_MOTION":14.68885946,"ECCENTRICITY":0.00294315,"INCLINATION":97.819,"RA_OF_ASC_NODE":118.6664,"ARG_OF_PERICENTER":15.436,"MEAN_ANOMALY":344.7737,"EPHEMERIS_TYPE":0,"CLASSIFICATION_TYPE":"U","NORAD_CAT_ID":41784,"ELEMENT_SET_NO":999,"REV_AT_EPOCH":51207,"BSTAR":0.00019348534,"MEAN_MOTION_DOT":1.091e-5,"MEAN_MOTION_DDOT":0},{"OBJECT_NAME":"FLYING LAPTOP","OBJECT_ID":"2017-042G","EPOCH":"2026-04-25T22:04:25.099680","MEAN_MOTION":15.0080844,"ECCENTRICITY":0.00182215,"INCLINATION":97.4455,"RA_OF_ASC_NODE":273.551,"ARG_OF_PERICENTER":303.8617,"MEAN_ANOMALY":56.0873,"EPHEMERIS_TYPE":0,"CLASSIFICATION_TYPE":"U","NORAD_CAT_ID":42831,"ELEMENT_SET_NO":999,"REV_AT_EPOCH":47861,"BSTAR":0.000222956,"MEAN_MOTION_DOT":2.783e-5,"MEAN_MOTION_DDOT":0},{"OBJECT_NAME":"SALSAT","OBJECT_ID":"2020-068K","EPOCH":"2026-04-25T22:26:17.896704","MEAN_MOTION":15.29005761,"ECCENTRICITY":0.00115234,"INCLINATION":97.8865,"RA_OF_ASC_NODE":115.8517,"ARG_OF_PERICENTER":121.2153,"MEAN_ANOMALY":239.0216,"EPHEMERIS_TYPE":0,"CLASSIFICATION_TYPE":"U","NORAD_CAT_ID":46495,"ELEMENT_SET_NO":999,"REV_AT_EPOCH":30737,"BSTAR":0.00034294036,"MEAN_MOTION_DOT":9.598e-5,"MEAN_MOTION_DDOT":0}]
