SAUDISAT 1C (SO-50)     
1 27607U 02058C   26115.82574773  .00001145  00000+0  15231-3 0  9990
2 27607  64.5516 290.9753 0075587 271.9918  87.2533 14.82928015256691
SAUDISAT 2              
1 28371U 04025F   26115.96197103  .00000310  00000+0  80216-4 0  9997
2 28371  98.5511 114.5969 0025955  96.8893 263.5258 14.56650590158147
SAUDISAT 3              
1 31118U 07012B   26115.82849732  .00000333  00000+0  61915-4 0  9996
2 31118  98.1418  66.2086 0015484  38.2514 321.9788 14.71392050 20046
PISAT                   
1 41784U 16059B   26115.96591075  .00001091  00000+0  19349-3 0  9991
2 41784  97.8190 118.6664 0029431  15.4360 344.7737 14.68885946512079
FLYING LAPTOP           
1 42831U 17042G   26115.91973495  .00002783  00000+0  22296-3 0  9997
2 42831  97.4455 273.5510 0018221 303.8617  56.0873 15.00808440478614
SALSAT                  
1 46495U 20068K   26115.93492936  .00009598  00000+0  34294-3 0  9999
2 46495  97.8865 115.8517 0011523 121.2153 239.0216 15.29005761307377
